IRIDIUM 112             
1 41925U 17003J   25047.61442305  .00000255  00000+0  83863-4 0  9998
2 41925  86.3948 291.2076 0001944  89.4234 270.7184 14.34218408423672
IRIDIUM 111             
1 41926U 17003K   25047.60173914 -.00000040  00000+0 -21231-4 0  9990
2 41926  86.3950 291.2727 0002149  84.1559 275.9881 14.34217293423659
IRIDIUM 113             
1 42803U 17039A   25047.58170263  .00000740  00000+0  25712-3 0  9997
2 42803  86.4041 165.1262 0001882 109.3287 250.8112 14.34219606401587
IRIDIUM 123             
1 42804U 17039B   25047.48364203  .00000679  00000+0  23555-3 0  9990
2 42804  86.4009 196.5854 0002299  93.5473 266.5986 14.34218085400336
IRIDIUM 120             
1 42805U 17039C   25047.57535900  .00000103  00000+0  29723-4 0  9991
2 42805  86.4029 164.9745 0002339  91.0519 269.0945 14.34218857401573
IRIDIUM 115             
1 42806U 17039D   25047.59471648  .00000894  00000+0  25968-3 0  9995
2 42806  86.4568 165.0278 0002703  97.1394 263.0115 14.43287723404224
IRIDIUM 118             
1 42807U 17039E   25047.44558729  .00000624  00000+0  21573-3 0  9995
2 42807  86.4008 196.6015 0001982  95.4533 264.6889 14.34215428400322
IRIDIUM 117             
1 42808U 17039F   25047.46461684  .00000566  00000+0  19518-3 0  9992
2 42808  86.4010 196.5562 0002243  93.5621 266.5831 14.34219717400356
